{
  "type": "FeatureCollection",
  "features": [
    {
      "type": "Feature",
      "properties": {
        "norad_id": 66427,
        "name": "STARLINK-35611",
        "group": "last-30-days",
        "lat": -18.84282268344743,
        "lon": -56.886581177616314,
        "alt_km": 416.52091442753954,
        "timestamp": "2025-12-03T10:52:56.221336+00:00",
        "meta_object_name": "STARLINK-35611",
        "meta_object_id": "2025-259F",
        "meta_epoch": "2025-12-03T04:00:01.998720",
        "meta_mean_motion": 15.50622483,
        "meta_eccentricity": 0.0001645,
        "meta_inclination": 43.0001,
        "meta_ra_of_asc_node": 103.3084,
        "meta_arg_of_pericenter": 273.8892,
        "meta_mean_anomaly": 131.7988,
        "meta_ephemeris_type": 0,
        "meta_classification_type": "U",
        "meta_norad_cat_id": 66427,
        "meta_element_set_no": 999,
        "meta_rev_at_epoch": 474,
        "meta_bstar": -0.001955,
        "meta_mean_motion_dot": -0.00113565,
        "meta_mean_motion_ddot": 0,
        "tle_line1": "1 66427U 25259F   25337.16668980 -.00113565  00000+0 -19550-2 0  9996",
        "tle_line2": "2 66427  43.0001 103.3084 0001645 273.8892 131.7988 15.50622483  4747"
      },
      "geometry": {
        "type": "Point",
        "coordinates": [
          -56.886581177616314,
          -18.84282268344743
        ]
      }
    },
    {
      "type": "Feature",
      "properties": {
        "norad_id": 66428,
        "name": "STARLINK-35610",
        "group": "last-30-days",
        "lat": -20.05457349095629,
        "lon": -55.310377289822824,
        "alt_km": 416.47365226776583,
        "timestamp": "2025-12-03T10:52:56.221347+00:00",
        "meta_object_name": "STARLINK-35610",
        "meta_object_id": "2025-259G",
        "meta_epoch": "2025-12-03T04:00:01.998720",
        "meta_mean_motion": 15.50659586,
        "meta_eccentricity": 0.0001663,
        "meta_inclination": 43.0001,
        "meta_ra_of_asc_node": 103.3041,
        "meta_arg_of_pericenter": 268.458,
        "meta_mean_anomaly": 139.1293,
        "meta_ephemeris_type": 0,
        "meta_classification_type": "U",
        "meta_norad_cat_id": 66428,
        "meta_element_set_no": 999,
        "meta_rev_at_epoch": 474,
        "meta_bstar": -0.0029035,
        "meta_mean_motion_dot": -0.0016757,
        "meta_mean_motion_ddot": 0,
        "tle_line1": "1 66428U 25259G   25337.16668980 -.00167570  00000+0 -29035-2 0  9991",
        "tle_line2": "2 66428  43.0001 103.3041 0001663 268.4580 139.1293 15.50659586  4740"
      },
      "geometry": {
        "type": "Point",
        "coordinates": [
          -55.310377289822824,
          -20.05457349095629
        ]
      }
    },
    {
      "type": "Feature",
      "properties": {
        "norad_id": 66429,
        "name": "STARLINK-35533",
        "group": "last-30-days",
        "lat": -21.25083731722888,
        "lon": -53.71334337886345,
        "alt_km": 416.5727152571235,
        "timestamp": "2025-12-03T10:52:56.221357+00:00",
        "meta_object_name": "STARLINK-35533",
        "meta_object_id": "2025-259H",
        "meta_epoch": "2025-12-03T04:00:01.998720",
        "meta_mean_motion": 15.50672479,
        "meta_eccentricity": 0.000168,
        "meta_inclination": 43.0002,
        "meta_ra_of_asc_node": 103.2979,
        "meta_arg_of_pericenter": 270.8231,
        "meta_mean_anomaly": 138.6772,
        "meta_ephemeris_type": 0,
        "meta_classification_type": "U",
        "meta_norad_cat_id": 66429,
        "meta_element_set_no": 999,
        "meta_rev_at_epoch": 474,
        "meta_bstar": -0.0032453,
        "meta_mean_motion_dot": -0.00186881,
        "meta_mean_motion_ddot": 0,
        "tle_line1": "1 66429U 25259H   25337.16668980 -.00186881  00000+0 -32453-2 0  9996",
        "tle_line2": "2 66429  43.0002 103.2979 0001680 270.8231 138.6772 15.50672479  4742"
      },
      "geometry": {
        "type": "Point",
        "coordinates": [
          -53.71334337886345,
          -21.25083731722888
        ]
      }
    },
    {
      "type": "Feature",
      "properties": {
        "norad_id": 66430,
        "name": "STARLINK-35470",
        "group": "last-30-days",
        "lat": -22.430470195415225,
        "lon": -52.08902744933177,
        "alt_km": 416.5739129587182,
        "timestamp": "2025-12-03T10:52:56.221370+00:00",
        "meta_object_name": "STARLINK-35470",
        "meta_object_id": "2025-259J",
        "meta_epoch": "2025-12-03T04:00:01.998720",
        "meta_mean_motion": 15.5072589,
        "meta_eccentricity": 0.0001707,
        "meta_inclination": 43.0002,
        "meta_ra_of_asc_node": 103.2946,
        "meta_arg_of_pericenter": 269.4177,
        "meta_mean_anomaly": 141.9685,
        "meta_ephemeris_type": 0,
        "meta_classification_type": "U",
        "meta_norad_cat_id": 66430,
        "meta_element_set_no": 999,
        "meta_rev_at_epoch": 474,
        "meta_bstar": -0.0045752,
        "meta_mean_motion_dot": -0.00261362,
        "meta_mean_motion_ddot": 0,
        "tle_line1": "1 66430U 25259J   25337.16668980 -.00261362  00000+0 -45752-2 0  9992",
        "tle_line2": "2 66430  43.0002 103.2946 0001707 269.4177 141.9685 15.50725890  4747"
      },
      "geometry": {
        "type": "Point",
        "coordinates": [
          -52.08902744933177,
          -22.430470195415225
        ]
      }
    },
    {
      "type": "Feature",
      "properties": {
        "norad_id": 66431,
        "name": "STARLINK-35439",
        "group": "last-30-days",
        "lat": -23.59609674936579,
        "lon": -50.436077542873306,
        "alt_km": 416.58384621897585,
        "timestamp": "2025-12-03T10:52:56.221381+00:00",
        "meta_object_name": "STARLINK-35439",
        "meta_object_id": "2025-259K",
        "meta_epoch": "2025-12-03T04:00:01.998720",
        "meta_mean_motion": 15.50720658,
        "meta_eccentricity": 0.0001632,
        "meta_inclination": 43,
        "meta_ra_of_asc_node": 103.2882,
        "meta_arg_of_pericenter": 263.8011,
        "meta_mean_anomaly": 149.5101,
        "meta_ephemeris_type": 0,
        "meta_classification_type": "U",
        "meta_norad_cat_id": 66431,
        "meta_element_set_no": 999,
        "meta_rev_at_epoch": 474,
        "meta_bstar": -0.0045191,
        "meta_mean_motion_dot": -0.00258215,
        "meta_mean_motion_ddot": 0,
        "tle_line1": "1 66431U 25259K   25337.16668980 -.00258215  00000+0 -45191-2 0  9993",
        "tle_line2": "2 66431  43.0000 103.2882 0001632 263.8011 149.5101 15.50720658  4741"
      },
      "geometry": {
        "type": "Point",
        "coordinates": [
          -50.436077542873306,
          -23.59609674936579
        ]
      }
    },
    {
      "type": "Feature",
      "properties": {
        "norad_id": 66432,
        "name": "STARLINK-35446",
        "group": "last-30-days",
        "lat": -24.73299241499449,
        "lon": -48.76915665890865,
        "alt_km": 416.63822243428694,
        "timestamp": "2025-12-03T10:52:56.221397+00:00",
        "meta_object_name": "STARLINK-35446",
        "meta_object_id": "2025-259L",
        "meta_epoch": "2025-12-03T04:00:01.998720",
        "meta_mean_motion": 15.50693975,
        "meta_eccentricity": 0.0001768,
        "meta_inclination": 43.0002,
        "meta_ra_of_asc_node": 103.2828,
        "meta_arg_of_pericenter": 267.4788,
        "meta_mean_anomaly": 147.7512,
        "meta_ephemeris_type": 0,
        "meta_classification_type": "U",
        "meta_norad_cat_id": 66432,
        "meta_element_set_no": 999,
        "meta_rev_at_epoch": 474,
        "meta_bstar": -0.0036707,
        "meta_mean_motion_dot": -0.00210859,
        "meta_mean_motion_ddot": 0,
        "tle_line1": "1 66432U 25259L   25337.16668980 -.00210859  00000+0 -36707-2 0  9999",
        "tle_line2": "2 66432  43.0002 103.2828 0001768 267.4788 147.7512 15.50693975  4742"
      },
      "geometry": {
        "type": "Point",
        "coordinates": [
          -48.76915665890865,
          -24.73299241499449
        ]
      }
    },
    {
      "type": "Feature",
      "properties": {
        "norad_id": 66433,
        "name": "STARLINK-35457",
        "group": "last-30-days",
        "lat": -25.860942849145662,
        "lon": -47.054119332090735,
        "alt_km": 416.83981344111,
        "timestamp": "2025-12-03T10:52:56.221408+00:00",
        "meta_object_name": "STARLINK-35457",
        "meta_object_id": "2025-259M",
        "meta_epoch": "2025-12-03T04:00:01.998720",
        "meta_mean_motion": 15.50690943,
        "meta_eccentricity": 0.0001627,
        "meta_inclination": 43.0002,
        "meta_ra_of_asc_node": 103.2793,
        "meta_arg_of_pericenter": 272.0985,
        "meta_mean_anomaly": 145.0568,
        "meta_ephemeris_type": 0,
        "meta_classification_type": "U",
        "meta_norad_cat_id": 66433,
        "meta_element_set_no": 999,
        "meta_rev_at_epoch": 474,
        "meta_bstar": -0.0037393,
        "meta_mean_motion_dot": -0.00214662,
        "meta_mean_motion_ddot": 0,
        "tle_line1": "1 66433U 25259M   25337.16668980 -.00214662  00000+0 -37393-2 0  9998",
        "tle_line2": "2 66433  43.0002 103.2793 0001627 272.0985 145.0568 15.50690943  4743"
      },
      "geometry": {
        "type": "Point",
        "coordinates": [
          -47.054119332090735,
          -25.860942849145662
        ]
      }
    }
  ]
}